satname,norad_id,inclination_deg,eccentricity,mean_motion_rev_per_day,perigee_km,apogee_km,l1,l2
STARLINK-1265,45406,53.1609,0.0001672,15.30485079,473.21826887011684,475.5097452068703,1 45406U 20019AY  26082.22061933  .00015541  00000+0  53105-3 0  9997,2 45406  53.1609  66.4897 0001672  90.2440 269.8752 15.30485079332043
STARLINK-1278,45408,53.0448,0.0003362,15.5813616,390.77502017328607,395.3279673164807,1 45408U 20019BA  26082.25893869  .00043012  00000+0  56423-3 0  9993,2 45408  53.0448  64.5664 0003362  81.1692 278.9700 15.58136160332073
STARLINK-1296,45412,53.1611,0.000209,15.31016757,471.34562332684345,474.2093055729829,1 45412U 20019BE  26082.21177126  .00027151  00000+0  90241-3 0  9997,2 45412  53.1611  66.4055 0002090 100.7255 259.3981 15.31016757332047
STARLINK-1298,45413,53.0299,0.0001158,16.14538758,233.65572748360864,235.18719602335204,1 45413U 20019BF  26083.00852707  .00996890  64949-3  76400-3 0  9993,2 45413  53.0299 339.4552 0001158 201.8363 158.2623 16.14538758333415
STARLINK-1309,45414,53.0677,0.0006888,15.57215159,391.05523651236854,400.3869033895344,1 45414U 20019BG  26082.17965190  .00068211  00000+0  91865-3 0  9995,2 45414  53.0677  58.3060 0006888  78.4173 281.7611 15.57215159332139
STARLINK-1316,45415,53.1597,0.0001528,15.30992794,471.80212032295094,473.89578162956786,1 45415U 20019BH  26082.12648687  .00026479  00000+0  88112-3 0  9991,2 45415  53.1597  66.8562 0001528 116.6830 243.4327 15.30992794332052
STARLINK-1286,45417,53.0489,0.0003745,15.5185968,408.7538993382859,413.83918506139435,1 45417U 20019BK  26082.26368729  .00042437  00000+0  70055-3 0  9993,2 45417  53.0489  65.4488 0003745  89.5553 270.5885 15.51859680332338
STARLINK-1308,45419,53.0541,0.0005353,15.53011437,404.30671713712945,411.57189042795926,1 45419U 20019BM  26082.39971226  .00077576  00000+0  12169-2 0  9994,2 45419  53.0541  86.1368 0005353  64.1842 295.9719 15.53011437331803
STARLINK-1329,45531,53.0465,0.0001295,15.6407274,375.03221440220113,376.7815117627388,1 45531U 20025A   26082.58335647  .00411728  00000+0  40630-2 0  9993,2 45531  53.0465  13.8585 0001295  99.0313  31.6165 15.64072740  5929
STARLINK-1338,45532,53.0497,0.0005042,15.56912003,393.18453880667585,400.0161839618959,1 45532U 20025B   26082.51135683  .00035561  00000+0  48978-3 0  9996,2 45532  53.0497  17.7989 0005042  58.6554 301.4950 15.56912003327550
STARLINK-1350,45535,53.0722,0.0002376,15.364873,454.8824577907999,458.1302803197741,1 45535U 20025E   26082.38707302  .00012987  00000+0  36957-3 0  9998,2 45535  53.0722 328.7986 0002376  96.6230 263.5043 15.36487300328261
STARLINK-1362,45538,53.1629,0.0001235,15.29731483,475.76777196950025,477.46089554893933,1 45538U 20025H   26082.43727520 -.00173804  00000+0 -60813-2 0  9996,2 45538  53.1629  37.1407 0001235 112.2373 247.8759 15.29731483327282
STARLINK-1368,45540,53.1611,0.0001319,15.30191241,474.3372617517289,476.14518292678076,1 45540U 20025K   26082.12035401 -.00001186  00000+0 -27928-4 0  9990,2 45540  53.1611  38.9409 0001319  83.9681 276.1470 15.30191241327229
STARLINK-1371,45542,53.0515,0.0002037,15.49271719,417.47077267177247,420.2398673429434,1 45542U 20025M   26082.11041322  .00041141  00000+0  74477-3 0  9993,2 45542  53.0515  25.1975 0002037  71.6530 288.4699 15.49271719327413
STARLINK-1372,45543,53.1607,0.0001244,15.30192834,474.3839062279885,476.08902554630095,1 45543U 20025N   26082.16244433  .00000409  00000+0  25953-4 0  9995,2 45543  53.1607  38.4440 0001244  87.6950 272.4193 15.30192834326335
STARLINK-1373,45544,53.0507,0.0004802,15.53077653,404.48783672950594,411.0049991641017,1 45544U 20025P   26082.15586633  .00044542  00000+0  70318-3 0  9996,2 45544  53.0507  24.1588 0004802  67.3737 292.7780 15.53077653327435
STARLINK-1327,45555,53.0471,0.0006894,15.56585979,392.87514294820267,402.21745508088406,1 45555U 20025AA  26082.46745604  .00065607  00000+0  90503-3 0  9990,2 45555  53.0471 359.9732 0006894 113.2079 246.9658 15.56585979327792
STARLINK-1356,45564,53.0527,0.0006004,15.4686841,421.8085058344568,429.97878583397323,1 45564U 20025AK  26082.50117538  .00040050  00000+0  78811-3 0  9997,2 45564  53.0527   7.9860 0006004  87.8892 272.2802 15.46868410327682
STARLINK-1357,45565,53.0511,0.0004331,15.5831256,389.6081075027014,395.4728683427402,1 45565U 20025AL  26082.38642714  .00062742  00000+0  81251-3 0  9997,2 45565  53.0511 331.5948 0004331 158.7844 201.3348 15.58312560328193
STARLINK-1361,45567,53.0502,0.0007525,15.49920596,411.84482994906375,422.0714481333207,1 45567U 20025AN  26082.49787572  .00033184  00000+0  58880-3 0  9993,2 45567  53.0502   7.7596 0007525  84.6411 275.5455 15.49920596327691
STARLINK-1363,45568,53.0415,0.0006657,15.79997717,325.9811930069309,334.9130018742635,1 45568U 20025AP  26081.99457496  .00165793  00000+0  86021-3 0  9997,2 45568  53.0415 331.1070 0006657 109.5676 250.6064 15.79997717328155
STARLINK-1366,45569,53.0416,0.0006949,15.78939556,328.78015502050766,338.1079103397278,1 45569U 20025AQ  26082.39804212  .00117042  00000+0  64175-3 0  9995,2 45569  53.0416 329.9626 0006949 108.6647 251.5128 15.78939556328204
STARLINK-1376,45570,53.1602,0.0001637,15.31132602,471.31046330713616,473.55333956546656,1 45570U 20025AR  26082.49761269  .00027978  00000+0  92612-3 0  9997,2 45570  53.1602  13.6347 0001637 125.8337 234.2816 15.31132602327619
STARLINK-1320,45572,53.0472,0.0005808,15.70826599,352.6218678592604,360.4448609545552,1 45572U 20025AT  26082.55852241  .00065805  00000+0  51861-3 0  9999,2 45572  53.0472 277.1803 0005808  94.0910 266.0771 15.70826599328989
STARLINK-1321,45573,53.0483,0.0004427,15.50603462,411.9557050198,417.9703157690037,1 45573U 20025AU  26082.17348541  .00055656  00000+0  95661-3 0  9990,2 45573  53.0483 353.8232 0004427 112.6918 247.4558 15.50603462327559
STARLINK-1331,45578,53.0531,0.0005473,15.50510856,411.5154797104369,418.95150305030256,1 45578U 20025AZ  26082.43949201  .00036336  00000+0  63074-3 0  9991,2 45578  53.0531 359.2364 0005473 132.1606 227.9867 15.50510856327816
STARLINK-1333,45580,53.1619,0.0001242,15.30193488,474.3833244045509,476.0857018884153,1 45580U 20025BB  26082.21352197 -.00000257  00000+0  34398-5 0  9995,2 45580  53.1619  14.9920 0001242  89.9569 270.1574 15.30193488327571
STARLINK-1335,45581,53.1582,0.0001404,15.29357213,476.7700709245173,478.69519911803127,1 45581U 20025BC  26082.49199288 -.00001715  00000+0 -47098-4 0  9997,2 45581  53.1582  11.0196 0001404  94.9313 265.1847 15.29357213327648
STARLINK-1337,45582,53.053,0.0005152,15.60389602,383.04567670376764,390.01599043948045,1 45582U 20025BD  26082.46620157  .00082432  00000+0  98222-3 0  9996,2 45582  53.0530 354.7398 0005152 133.0072 227.1372 15.60389602327860
STARLINK-1347,45586,53.0444,0.0004849,15.56736668,393.8237267473014,400.3943603603402,1 45586U 20025BH  26081.98146435  .00044102  00000+0  60912-3 0  9995,2 45586  53.0444 325.1670 0004849 117.9924 242.1578 15.56736668328232
STARLINK-1364,45589,53.0506,0.0007666,15.51903553,405.9638997449738,416.37326306238083,1 45589U 20025BL  26082.47938072  .00071687  00000+0  11710-2 0  9998,2 45589  53.0506 356.9560 0007666 112.5538 247.6283 15.51903553327838
STARLINK-1365,45590,53.0529,0.0004498,15.47295991,421.5802114761991,427.6999897559126,1 45590U 20025BM  26082.11136514  .00041813  00000+0  81042-3 0  9996,2 45590  53.0529  29.4863 0004498  92.0417 268.1105 15.47295991327365
STARLINK-1443,45660,53.1352,0.0003599,15.26287346,484.4517637882127,489.39323361537845,1 45660U 20035D   26082.47106779  .00028677  00000+0  11000-2 0  9993,2 45660  53.1352   1.2955 0003599 107.8586 252.2806 15.26287346320863
STARLINK-1446,45663,53.0236,9.5e-05,15.43445518,435.302104695229,436.59678111938047,1 45663U 20035G   26082.28204094  .00021589  00000+0  48293-3 0  9994,2 45663  53.0236 294.7830 0000950 353.1460   6.9532 15.43445518321779
STARLINK-1448,45665,53.0501,0.0007737,15.55017304,396.856458075089,407.348200413162,1 45665U 20035J   26082.41571626  .00058096  00000+0  85053-3 0  9997,2 45665  53.0501 346.4943 0007737 131.6378 228.5296 15.55017304321054
STARLINK-1451,45668,53.0543,0.0002143,15.10749951,532.4303321803682,535.3928362035522,1 45668U 20035M   26082.50995678  .00013523  00000+0  82206-3 0  9990,2 45668  53.0543   3.6289 0002143  78.8252 281.2979 15.10749951320837
STARLINK-1452,45669,53.0312,0.0006442,15.47085613,420.8740503079407,429.6395428754695,1 45669U 20035N   26081.93146461  .00046324  00000+0  90262-3 0  9991,2 45669  53.0312 318.5313 0006442 106.5478 253.6236 15.47085613321415
STARLINK-1453,45670,53.0464,0.0005012,15.55199093,398.1759612028063,404.9719434614244,1 45670U 20035P   26081.89050990  .00063759  00000+0  92653-3 0  9996,2 45670  53.0464 309.5984 0005012 104.8326 255.3240 15.55199093321426
STARLINK-1454,45671,53.0511,0.0007914,15.53705722,400.54864652020115,411.28644805765,1 45671U 20035Q   26082.46295318  .00059496  00000+0  91330-3 0  9990,2 45671  53.0511 346.5216 0007914 114.8953 245.2880 15.53705722321056
STARLINK-1456,45673,53.0494,0.000253,15.52014775,409.1266040460132,412.56182854145845,1 45673U 20035S   26082.40817156  .00050618  00000+0  82876-3 0  9998,2 45673  53.0494 340.3983 0002530 161.5416 198.5685 15.52014775321157
STARLINK-1457,45674,53.0453,0.0006731,15.82616031,318.53527232201304,327.55640465918805,1 45674U 20035T   26082.58335647  .00192673  00000+0  88249-3 0  9996,2 45674  53.0453 312.6522 0006731 129.2176 258.4063 15.82616031  5987
STARLINK-1458,45675,53.0536,0.0006835,15.44552761,428.037310541682,437.34771448528863,1 45675U 20035U   26082.46645937  .00045239  00000+0  96156-3 0  9991,2 45675  53.0536 350.0020 0006835 125.1077 235.0570 15.44552761320980
STARLINK-1460,45676,53.1605,0.0001298,15.30190812,474.3529346089226,476.132071927972,1 45676U 20035V   26082.18451524 -.00001947  00000+0 -53627-4 0  9995,2 45676  53.1605   2.2650 0001298  86.6867 273.4282 15.30190812320784
